[{"OBJECT_NAME":"HTV-X1","OBJECT_ID":"2025-241A","EPOCH":"2026-03-04T09:57:31.642848","MEAN_MOTION":15.48440114,"ECCENTRICITY":0.0008199,"INCLINATION":51.6315,"RA_OF_ASC_NODE":98.4344,"ARG_OF_PERICENTER":155.9283,"MEAN_ANOMALY":204.209,"EPHEMERIS_TYPE":0,"CLASSIFICATION_TYPE":"U","NORAD_CAT_ID":66174,"ELEMENT_SET_NO":999,"REV_AT_EPOCH":55543,"BSTAR":0.00019994,"MEAN_MOTION_DOT":0.00010377,"MEAN_MOTION_DDOT":0},{"OBJECT_NAME":"SZ-21 MODULE","OBJECT_ID":"2025-246C","EPOCH":"2026-03-03T18:27:35.995968","MEAN_MOTION":15.6801182,"ECCENTRICITY":0.00014472,"INCLINATION":41.473,"RA_OF_ASC_NODE":239.793,"ARG_OF_PERICENTER":287.9355,"MEAN_ANOMALY":72.1329,"EPHEMERIS_TYPE":0,"CLASSIFICATION_TYPE":"U","NORAD_CAT_ID":66515,"ELEMENT_SET_NO":999,"REV_AT_EPOCH":1714,"BSTAR":0.00039281321,"MEAN_MOTION_DOT":0.00044751,"MEAN_MOTION_DDOT":0},{"OBJECT_NAME":"SHENZHOU-22","OBJECT_ID":"2025-272A","EPOCH":"2026-03-04T12:45:43.652736","MEAN_MOTION":15.60393731,"ECCENTRICITY":0.000688,"INCLINATION":41.4656,"RA_OF_ASC_NODE":239.5395,"ARG_OF_PERICENTER":242.0703,"MEAN_ANOMALY":117.9439,"EPHEMERIS_TYPE":0,"CLASSIFICATION_TYPE":"U","NORAD_CAT_ID":66645,"ELEMENT_SET_NO":999,"REV_AT_EPOCH":26835,"BSTAR":0.00029808,"MEAN_MOTION_DOT":0.00024935,"MEAN_MOTION_DDOT":0},{"OBJECT_NAME":"SOYUZ-MS 28","OBJECT_ID":"2025-275A","EPOCH":"2026-03-04T09:57:31.642848","MEAN_MOTION":15.48440114,"ECCENTRICITY":0.0008199,"INCLINATION":51.6315,"RA_OF_ASC_NODE":98.4344,"ARG_OF_PERICENTER":155.9283,"MEAN_ANOMALY":204.209,"EPHEMERIS_TYPE":0,"CLASSIFICATION_TYPE":"U","NORAD_CAT_ID":66664,"ELEMENT_SET_NO":999,"REV_AT_EPOCH":55551,"BSTAR":0.00019994,"MEAN_MOTION_DOT":0.00010377,"MEAN_MOTION_DDOT":0},{"OBJECT_NAME":"DUPLEX","OBJECT_ID":"1998-067XS","EPOCH":"2026-03-04T09:12:56.728224","MEAN_MOTION":15.55826494,"ECCENTRICITY":0.0002075,"INCLINATION":51.6284,"RA_OF_ASC_NODE":95.9816,"ARG_OF_PERICENTER":91.8511,"MEAN_ANOMALY":268.2718,"EPHEMERIS_TYPE":0,"CLASSIFICATION_TYPE":"U","NORAD_CAT_ID":66906,"ELEMENT_SET_NO":999,"REV_AT_EPOCH":1430,"BSTAR":0.00060284,"MEAN_MOTION_DOT":0.00042212,"MEAN_MOTION_DDOT":0},{"OBJECT_NAME":"ISS OBJECT XT","OBJECT_ID":"1998-067XT","EPOCH":"2026-03-04T07:03:20.165760","MEAN_MOTION":15.67417551,"ECCENTRICITY":0.000464,"INCLINATION":51.6246,"RA_OF_ASC_NODE":93.1197,"ARG_OF_PERICENTER":42.9722,"MEAN_ANOMALY":317.1636,"EPHEMERIS_TYPE":0,"CLASSIFICATION_TYPE":"U","NORAD_CAT_ID":66907,"ELEMENT_SET_NO":999,"REV_AT_EPOCH":1433,"BSTAR":0.0016714,"MEAN_MOTION_DOT":0.00188353,"MEAN_MOTION_DDOT":0},{"OBJECT_NAME":"ISS OBJECT XU","OBJECT_ID":"1998-067XU","EPOCH":"2026-03-04T07:01:15.984768","MEAN_MOTION":15.67514512,"ECCENTRICITY":0.0004676,"INCLINATION":51.6245,"RA_OF_ASC_NODE":93.1068,"ARG_OF_PERICENTER":47.0078,"MEAN_ANOMALY":313.1309,"EPHEMERIS_TYPE":0,"CLASSIFICATION_TYPE":"U","NORAD_CAT_ID":66908,"ELEMENT_SET_NO":999,"REV_AT_EPOCH":1433,"BSTAR":0.0016845,"MEAN_MOTION_DOT":0.00190633,"MEAN_MOTION_DDOT":0},{"OBJECT_NAME":"SILVERSAT","OBJECT_ID":"1998-067XV","EPOCH":"2026-03-04T05:44:31.309728","MEAN_MOTION":15.69945816,"ECCENTRICITY":0.000549,"INCLINATION":51.6239,"RA_OF_ASC_NODE":92.7506,"ARG_OF_PERICENTER":43.4066,"MEAN_ANOMALY":316.7363,"EPHEMERIS_TYPE":0,"CLASSIFICATION_TYPE":"U","NORAD_CAT_ID":66909,"ELEMENT_SET_NO":999,"REV_AT_EPOCH":1433,"BSTAR":0.0018132,"MEAN_MOTION_DOT":0.00227913,"MEAN_MOTION_DDOT":0},{"OBJECT_NAME":"ISS OBJECT XW","OBJECT_ID":"1998-067XW","EPOCH":"2026-03-04T11:28:36.985440","MEAN_MOTION":15.66994396,"ECCENTRICITY":0.0004931,"INCLINATION":51.6245,"RA_OF_ASC_NODE":92.0913,"ARG_OF_PERICENTER":56.6697,"MEAN_ANOMALY":303.4771,"EPHEMERIS_TYPE":0,"CLASSIFICATION_TYPE":"U","NORAD_CAT_ID":66910,"ELEMENT_SET_NO":999,"REV_AT_EPOCH":1436,"BSTAR":0.0015623,"MEAN_MOTION_DOT":0.00172698,"MEAN_MOTION_DDOT":0},{"OBJECT_NAME":"ISS OBJECT XX","OBJECT_ID":"1998-067XX","EPOCH":"2026-03-04T08:57:23.189184","MEAN_MOTION":15.72573007,"ECCENTRICITY":0.0007057,"INCLINATION":51.6212,"RA_OF_ASC_NODE":91.3792,"ARG_OF_PERICENTER":50.5445,"MEAN_ANOMALY":309.6177,"EPHEMERIS_TYPE":0,"CLASSIFICATION_TYPE":"U","NORAD_CAT_ID":66911,"ELEMENT_SET_NO":999,"REV_AT_EPOCH":1435,"BSTAR":0.0019668,"MEAN_MOTION_DOT":0.00277959,"MEAN_MOTION_DDOT":0},{"OBJECT_NAME":"ISS OBJECT XY","OBJECT_ID":"1998-067XY","EPOCH":"2026-03-04T08:08:23.148384","MEAN_MOTION":15.62578178,"ECCENTRICITY":0.0002913,"INCLINATION":51.6267,"RA_OF_ASC_NODE":94.178,"ARG_OF_PERICENTER":59.3455,"MEAN_ANOMALY":300.7826,"EPHEMERIS_TYPE":0,"CLASSIFICATION_TYPE":"U","NORAD_CAT_ID":66912,"ELEMENT_SET_NO":999,"REV_AT_EPOCH":1431,"BSTAR":0.0012563,"MEAN_MOTION_DOT":0.00115523,"MEAN_MOTION_DDOT":0},{"OBJECT_NAME":"ISS OBJECT XZ","OBJECT_ID":"1998-067XZ","EPOCH":"2026-03-04T07:37:01.846272","MEAN_MOTION":15.5133766,"ECCENTRICITY":0.0009491,"INCLINATION":51.6304,"RA_OF_ASC_NODE":98.5346,"ARG_OF_PERICENTER":167.7937,"MEAN_ANOMALY":192.3284,"EPHEMERIS_TYPE":0,"CLASSIFICATION_TYPE":"U","NORAD_CAT_ID":67683,"ELEMENT_SET_NO":999,"REV_AT_EPOCH":395,"BSTAR":0.00087421,"MEAN_MOTION_DOT":0.00052289,"MEAN_MOTION_DDOT":0},{"OBJECT_NAME":"GXIBA-1","OBJECT_ID":"1998-067YA","EPOCH":"2026-03-04T08:41:37.516128","MEAN_MOTION":15.53373762,"ECCENTRICITY":0.0010966,"INCLINATION":51.6304,"RA_OF_ASC_NODE":98.0837,"ARG_OF_PERICENTER":158.3351,"MEAN_ANOMALY":201.8106,"EPHEMERIS_TYPE":0,"CLASSIFICATION_TYPE":"U","NORAD_CAT_ID":67684,"ELEMENT_SET_NO":999,"REV_AT_EPOCH":396,"BSTAR":0.0015928,"MEAN_MOTION_DOT":0.00103687,"MEAN_MOTION_DDOT":0},{"OBJECT_NAME":"CORAL","OBJECT_ID":"1998-067YB","EPOCH":"2026-03-04T07:32:17.590272","MEAN_MOTION":15.51642058,"ECCENTRICITY":0.0011399,"INCLINATION":51.6305,"RA_OF_ASC_NODE":98.5128,"ARG_OF_PERICENTER":164.0725,"MEAN_ANOMALY":196.0625,"EPHEMERIS_TYPE":0,"CLASSIFICATION_TYPE":"U","NORAD_CAT_ID":67685,"ELEMENT_SET_NO":999,"REV_AT_EPOCH":395,"BSTAR":0.00095212,"MEAN_MOTION_DOT":0.00057704,"MEAN_MOTION_DDOT":0},{"OBJECT_NAME":"ISS OBJECT YC","OBJECT_ID":"1998-067YC","EPOCH":"2026-03-04T07:26:44.044800","MEAN_MOTION":15.52065011,"ECCENTRICITY":0.0007745,"INCLINATION":51.6308,"RA_OF_ASC_NODE":98.4887,"ARG_OF_PERICENTER":132.0357,"MEAN_ANOMALY":228.1293,"EPHEMERIS_TYPE":0,"CLASSIFICATION_TYPE":"U","NORAD_CAT_ID":67686,"ELEMENT_SET_NO":999,"REV_AT_EPOCH":395,"BSTAR":0.0011372,"MEAN_MOTION_DOT":0.00070087,"MEAN_MOTION_DDOT":0},{"OBJECT_NAME":"LEOPARD","OBJECT_ID":"1998-067YD","EPOCH":"2026-03-04T07:34:28.800768","MEAN_MOTION":15.51484974,"ECCENTRICITY":0.0007781,"INCLINATION":51.6306,"RA_OF_ASC_NODE":98.5236,"ARG_OF_PERICENTER":136.2386,"MEAN_ANOMALY":223.9221,"EPHEMERIS_TYPE":0,"CLASSIFICATION_TYPE":"U","NORAD_CAT_ID":67687,"ELEMENT_SET_NO":999,"REV_AT_EPOCH":387,"BSTAR":0.00094368,"MEAN_MOTION_DOT":0.00056781,"MEAN_MOTION_DDOT":0},{"OBJECT_NAME":"ISS OBJECT YE","OBJECT_ID":"1998-067YE","EPOCH":"2026-03-04T12:07:23.752992","MEAN_MOTION":15.51890022,"ECCENTRICITY":0.0007786,"INCLINATION":51.6315,"RA_OF_ASC_NODE":97.5383,"ARG_OF_PERICENTER":134.731,"MEAN_ANOMALY":225.4314,"EPHEMERIS_TYPE":0,"CLASSIFICATION_TYPE":"U","NORAD_CAT_ID":67688,"ELEMENT_SET_NO":999,"REV_AT_EPOCH":390,"BSTAR":0.0010599,"MEAN_MOTION_DOT":0.00064836,"MEAN_MOTION_DDOT":0}]
